{"type": "FeatureCollection", "features": [ {"type": "Feature", "properties": {"norad_id": 37719, "name": "FENGYUN 1C DEB", "group": "fengyun-1c-debris", "lat": -30.834292216302142, "lon": -158.24960422197643, "alt_km": 680.7262338389019, "timestamp": "2025-12-25T16:53:14.953160+00:00", "meta": {"OBJECT_NAME": "FENGYUN 1C DEB", "OBJECT_ID": "1999-025EML", "EPOCH": "2025-12-21T08:06:10.221120", "MEAN_MOTION": 14.56171039, "ECCENTRICITY": 0.00438458, "INCLINATION": 99.5008, "RA_OF_ASC_NODE": 22.5212, "ARG_OF_PERICENTER": 233.5664, "MEAN_ANOMALY": 142.7059, "EPHEMERIS_TYPE": 0, "CLASSIFICATION_TYPE": "U", "NORAD_CAT_ID": 37719, "ELEMENT_SET_NO": 999, "REV_AT_EPOCH": 364, "BSTAR": 0.0012070078, "MEAN_MOTION_DOT": 5.344e-05, "MEAN_MOTION_DDOT": 0}, "tle": {"line1": "1 37719U 99025EML 25355.33761830  .00005344  00000+0  12070-2 0  9990", "line2": "2 37719  99.5008  22.5212 0043845 233.5664 142.7059 14.56171039  3645"}}, "geometry": {"type": "Point", "coordinates": [-158.24960422197643, -30.834292216302142]}}, {"type": "Feature", "properties": {"norad_id": 37902, "name": "FENGYUN 1C DEB", "group": "fengyun-1c-debris", "lat": -15.30449361655357, "lon": -139.22866376627522, "alt_km": 981.6779324632162, "timestamp": "2025-12-25T16:53:14.953170+00:00", "meta": {"OBJECT_NAME": "FENGYUN 1C DEB", "OBJECT_ID": "1999-025ENB", "EPOCH": "2025-12-07T14:03:14.833440", "MEAN_MOTION": 13.52640367, "ECCENTRICITY": 0.03237878, "INCLINATION": 98.6837, "RA_OF_ASC_NODE": 202.4677, "ARG_OF_PERICENTER": 320.2654, "MEAN_ANOMALY": 37.5166, "EPHEMERIS_TYPE": 0, "CLASSIFICATION_TYPE": "U", "NORAD_CAT_ID": 37902, "ELEMENT_SET_NO": 999, "REV_AT_EPOCH": 62907, "BSTAR": 0.003775391, "MEAN_MOTION_DOT": 3.447e-05, "MEAN_MOTION_DDOT": 0}, "tle": {"line1": "1 37902U 99025ENB 25341.58558835  .00003447  00000+0  37754-2 0  9993", "line2": "2 37902  98.6837 202.4677 0323787 320.2654  37.5166 13.52640367629073"}}, "geometry": {"type": "Point", "coordinates": [-139.22866376627522, -15.30449361655357]}}, {"type": "Feature", "properties": {"norad_id": 37906, "name": "FENGYUN 1C DEB", "group": "fengyun-1c-debris", "lat": -23.674983521472186, "lon": -143.48765550936017, "alt_km": 1069.5545780490856, "timestamp": "2025-12-25T16:53:14.953181+00:00", "meta": {"OBJECT_NAME": "FENGYUN 1C DEB", "OBJECT_ID": "1999-025ENF", "EPOCH": "2025-12-24T21:38:01.650336", "MEAN_MOTION": 13.80804491, "ECCENTRICITY": 0.0162343, "INCLINATION": 99.6006, "RA_OF_ASC_NODE": 39.9531, "ARG_OF_PERICENTER": 356.4608, "MEAN_ANOMALY": 182.6575, "EPHEMERIS_TYPE": 0, "CLASSIFICATION_TYPE": "U", "NORAD_CAT_ID": 37906, "ELEMENT_SET_NO": 999, "REV_AT_EPOCH": 59623, "BSTAR": 0.00060461, "MEAN_MOTION_DOT": 6.56e-06, "MEAN_MOTION_DDOT": 0}, "tle": {"line1": "1 37906U 99025ENF 25358.90140799  .00000656  00000+0  60461-3 0  9998", "line2": "2 37906  99.6006  39.9531 0162343 356.4608 182.6575 13.80804491596235"}}, "geometry": {"type": "Point", "coordinates": [-143.48765550936017, -23.674983521472186]}}, {"type": "Feature", "properties": {"norad_id": 37907, "name": "FENGYUN 1C DEB", "group": "fengyun-1c-debris", "lat": -16.44065997716253, "lon": 115.80398445790473, "alt_km": 861.4442607510855, "timestamp": "2025-12-25T16:53:14.953191+00:00", "meta": {"OBJECT_NAME": "FENGYUN 1C DEB", "OBJECT_ID": "1999-025ENG", "EPOCH": "2025-12-24T13:58:45.496128", "MEAN_MOTION": 14.23697685, "ECCENTRICITY": 0.00626016, "INCLINATION": 99.0807, "RA_OF_ASC_NODE": 111.942, "ARG_OF_PERICENTER": 153.5987, "MEAN_ANOMALY": 206.8402, "EPHEMERIS_TYPE": 0, "CLASSIFICATION_TYPE": "U", "NORAD_CAT_ID": 37907, "ELEMENT_SET_NO": 999, "REV_AT_EPOCH": 83441, "BSTAR": 0.0028226052, "MEAN_MOTION_DOT": 6.533e-05, "MEAN_MOTION_DDOT": 0}, "tle": {"line1": "1 37907U 99025ENG 25358.58247102  .00006533  00000+0  28226-2 0  9991", "line2": "2 37907  99.0807 111.9420 0062601 153.5987 206.8402 14.23697685834415"}}, "geometry": {"type": "Point", "coordinates": [115.80398445790473, -16.44065997716253]}}, {"type": "Feature", "properties": {"norad_id": 37908, "name": "FENGYUN 1C DEB", "group": "fengyun-1c-debris", "lat": 4.123250398451359, "lon": 31.739737769284634, "alt_km": 794.9342498334272, "timestamp": "2025-12-25T16:53:14.953202+00:00", "meta": {"OBJECT_NAME": "FENGYUN 1C DEB", "OBJECT_ID": "1999-025ENH", "EPOCH": "2025-12-21T07:33:41.047488", "MEAN_MOTION": 14.36621553, "ECCENTRICITY": 0.00747559, "INCLINATION": 99.1512, "RA_OF_ASC_NODE": 27.7446, "ARG_OF_PERICENTER": 132.8804, "MEAN_ANOMALY": 227.869, "EPHEMERIS_TYPE": 0, "CLASSIFICATION_TYPE": "U", "NORAD_CAT_ID": 37908, "ELEMENT_SET_NO": 999, "REV_AT_EPOCH": 64184, "BSTAR": 0.00036301437, "MEAN_MOTION_DOT": 1.053e-05, "MEAN_MOTION_DDOT": 0}, "tle": {"line1": "1 37908U 99025ENH 25355.31505842  .00001053  00000+0  36301-3 0  9994", "line2": "2 37908  99.1512  27.7446 0074755 132.8804 227.8690 14.36621553641843"}}, "geometry": {"type": "Point", "coordinates": [31.739737769284634, 4.123250398451359]}}, {"type": "Feature", "properties": {"norad_id": 37912, "name": "FENGYUN 1C DEB", "group": "fengyun-1c-debris", "lat": -78.21714913873328, "lon": 97.46997759413699, "alt_km": 895.9897728257529, "timestamp": "2025-12-25T16:53:14.953212+00:00", "meta": {"OBJECT_NAME": "FENGYUN 1C DEB", "OBJECT_ID": "1999-025ENM", "EPOCH": "2025-12-24T09:01:28.629120", "MEAN_MOTION": 14.11593398, "ECCENTRICITY": 0.00927445, "INCLINATION": 99.2304, "RA_OF_ASC_NODE": 327.3238, "ARG_OF_PERICENTER": 28.0606, "MEAN_ANOMALY": 332.552, "EPHEMERIS_TYPE": 0, "CLASSIFICATION_TYPE": "U", "NORAD_CAT_ID": 37912, "ELEMENT_SET_NO": 999, "REV_AT_EPOCH": 77452, "BSTAR": 0.0025536166, "MEAN_MOTION_DOT": 4.787e-05, "MEAN_MOTION_DDOT": 0}, "tle": {"line1": "1 37912U 99025ENM 25358.37602580  .00004787  00000+0  25536-2 0  9999", "line2": "2 37912  99.2304 327.3238 0092744  28.0606 332.5520 14.11593398774526"}}, "geometry": {"type": "Point", "coordinates": [97.46997759413699, -78.21714913873328]}}, {"type": "Feature", "properties": {"norad_id": 37918, "name": "FENGYUN 1C DEB", "group": "fengyun-1c-debris", "lat": -69.94536842625875, "lon": -24.437905985233783, "alt_km": 755.4363844262562, "timestamp": "2025-12-25T16:53:14.953223+00:00", "meta": {"OBJECT_NAME": "FENGYUN 1C DEB", "OBJECT_ID": "1999-025ENT", "EPOCH": "2025-12-24T14:26:11.945760", "MEAN_MOTION": 14.34427362, "ECCENTRICITY": 0.00546335, "INCLINATION": 99.0295, "RA_OF_ASC_NODE": 308.5879, "ARG_OF_PERICENTER": 248.3892, "MEAN_ANOMALY": 111.1466, "EPHEMERIS_TYPE": 0, "CLASSIFICATION_TYPE": "U", "NORAD_CAT_ID": 37918, "ELEMENT_SET_NO": 999, "REV_AT_EPOCH": 3712, "BSTAR": 0.00066196779, "MEAN_MOTION_DOT": 1.847e-05, "MEAN_MOTION_DDOT": 0}, "tle": {"line1": "1 37918U 99025ENT 25358.60152715  .00001847  00000+0  66197-3 0  9994", "line2": "2 37918  99.0295 308.5879 0054633 248.3892 111.1466 14.34427362 37120"}}, "geometry": {"type": "Point", "coordinates": [-24.437905985233783, -69.94536842625875]}}, {"type": "Feature", "properties": {"norad_id": 37919, "name": "FENGYUN 1C DEB", "group": "fengyun-1c-debris", "lat": 71.49792284945383, "lon": 146.57516290723333, "alt_km": 816.7313159314372, "timestamp": "2025-12-25T16:53:14.953233+00:00", "meta": {"OBJECT_NAME": "FENGYUN 1C DEB", "OBJECT_ID": "1999-025ENU", "EPOCH": "2025-12-21T13:05:37.870080", "MEAN_MOTION": 14.26784577, "ECCENTRICITY": 0.0049416, "INCLINATION": 99.0587, "RA_OF_ASC_NODE": 293.7998, "ARG_OF_PERICENTER": 351.2429, "MEAN_ANOMALY": 8.7883, "EPHEMERIS_TYPE": 0, "CLASSIFICATION_TYPE": "U", "NORAD_CAT_ID": 37919, "ELEMENT_SET_NO": 999, "REV_AT_EPOCH": 65034, "BSTAR": 0.0004279, "MEAN_MOTION_DOT": 1.003e-05, "MEAN_MOTION_DDOT": 0}, "tle": {"line1": "1 37919U 99025ENU 25355.54557720  .00001003  00000+0  42790-3 0  9997", "line2": "2 37919  99.0587 293.7998 0049416 351.2429   8.7883 14.26784577650349"}}, "geometry": {"type": "Point", "coordinates": [146.57516290723333, 71.49792284945383]}}, {"type": "Feature", "properties": {"norad_id": 37921, "name": "FENGYUN 1C DEB", "group": "fengyun-1c-debris", "lat": 4.3862168333824805, "lon": 39.79929314311433, "alt_km": 880.7427070002541, "timestamp": "2025-12-25T16:53:14.953243+00:00", "meta": {"OBJECT_NAME": "FENGYUN 1C DEB", "OBJECT_ID": "1999-025ENW", "EPOCH": "2025-12-21T19:55:24.950496", "MEAN_MOTION": 13.95159889, "ECCENTRICITY": 0.00843197, "INCLINATION": 99.021, "RA_OF_ASC_NODE": 36.7092, "ARG_OF_PERICENTER": 74.058, "MEAN_ANOMALY": 286.9853, "EPHEMERIS_TYPE": 0, "CLASSIFICATION_TYPE": "U", "NORAD_CAT_ID": 37921, "ELEMENT_SET_NO": 999, "REV_AT_EPOCH": 63274, "BSTAR": 0.00031229262, "MEAN_MOTION_DOT": 3.91e-06, "MEAN_MOTION_DDOT": 0}, "tle": {"line1": "1 37921U 99025ENW 25355.83014989  .00000391  00000+0  31229-3 0  9991", "line2": "2 37921  99.0210  36.7092 0084319  74.0580 286.9853 13.95159889632742"}}, "geometry": {"type": "Point", "coordinates": [39.79929314311433, 4.3862168333824805]}}, {"type": "Feature", "properties": {"norad_id": 37925, "name": "FENGYUN 1C DEB", "group": "fengyun-1c-debris", "lat": 26.356297013898118, "lon": 55.10905598327192, "alt_km": 660.0308741323897, "timestamp": "2025-12-25T16:53:14.953254+00:00", "meta": {"OBJECT_NAME": "FENGYUN 1C DEB", "OBJECT_ID": "1999-025EPA", "EPOCH": "2025-12-22T21:41:38.860800", "MEAN_MOTION": 14.80526884, "ECCENTRICITY": 0.0055816, "INCLINATION": 99.0855, "RA_OF_ASC_NODE": 227.3947, "ARG_OF_PERICENTER": 311.3833, "MEAN_ANOMALY": 48.2583, "EPHEMERIS_TYPE": 0, "CLASSIFICATION_TYPE": "U", "NORAD_CAT_ID": 37925, "ELEMENT_SET_NO": 999, "REV_AT_EPOCH": 65833, "BSTAR": 0.0018808, "MEAN_MOTION_DOT": 0.00014755, "MEAN_MOTION_DDOT": 0}, "tle": {"line1": "1 37925U 99025EPA 25356.90392200  .00014755  00000+0  18808-2 0  9995", "line2": "2 37925  99.0855 227.3947 0055816 311.3833  48.2583 14.80526884658336"}}, "geometry": {"type": "Point", "coordinates": [55.10905598327192, 26.356297013898118]}}]}